GSAT0215 (GALILEO 19)   
1 43055U 17079A   26156.87054953  .00000041  00000+0  00000+0 0  9995
2 43055  55.0766 221.8189 0002568 253.4901 106.5680  1.70474626 52790
GSAT0216 (GALILEO 20)   
1 43056U 17079B   26155.40197341  .00000041  00000+0  00000+0 0  9993
2 43056  55.0770 221.8588 0004162 276.7209  83.3228  1.70474899 52781
GSAT0217 (GALILEO 21)   
1 43057U 17079C   26157.38249426  .00000041  00000+0  00000+0 0  9995
2 43057  55.0744 221.8020 0003476 288.9809  71.0662  1.70474392 52809
GSAT0218 (GALILEO 22)   
1 43058U 17079D   26157.01598591  .00000041  00000+0  00000+0 0  9996
2 43058  55.0748 221.8099 0005013 272.7637  87.2647  1.70474542 52820
BEIDOU-3 M7             
1 43107U 18003A   26157.07435627 -.00000056  00000+0  00000+0 0  9992
2 43107  54.3387 302.7026 0005003  91.1037 268.9441  1.86228500 57149
BEIDOU-3 M8             
1 43108U 18003B   26157.55625128 -.00000056  00000+0  00000+0 0  9993
2 43108  54.3309 302.6675 0002326 267.3600  92.6047  1.86231403 57163
BEIDOU-3 M4             
1 43207U 18018A   26156.92524065 -.00000038  00000+0  00000+0 0  9997
2 43207  56.6408  63.5205 0007646  14.5676 345.4822  1.86231485 56535
BEIDOU-3 M3             
1 43208U 18018B   26157.52867280 -.00000038  00000+0  00000+0 0  9994
2 43208  56.6410  63.5049 0008831 338.4954  21.4956  1.86231234 56541
BEIDOU-3 M9             
1 43245U 18029A   26156.13555275 -.00000056  00000+0  00000+0 0  9991
2 43245  54.2057 300.3710 0000840 140.8471 219.1477  1.86228436 55678
BEIDOU-3 M10            
1 43246U 18029B   26156.06997286 -.00000056  00000+0  00000+0 0  9996
2 43246  54.2027 300.3989 0004138  39.5125 320.5061  1.86229565 55656
IRNSS-1I                
1 43286U 18035A   26157.98519319  .00000092  00000+0  00000+0 0  9995
2 43286  28.7305  74.3576 0016508 194.5221  36.1312  1.00270043 29976
COSMOS 2527 [GLONASS-M] 
1 43508U 18053A   26157.29164378 -.00000006  00000+0  00000+0 0  9993
2 43508  65.5720  74.2705 0007457 241.8358 118.1112  2.13102386 62049
BEIDOU-2 IGSO-7         
1 43539U 18057A   26157.96026241  .00000014  00000+0  00000+0 0  9999
2 43539  55.1931 163.1468 0104780 237.9579 310.6863  1.00254777 29024
GSAT0221 (GALILEO 25)   
1 43564U 18060A   26155.74673316 -.00000070  00000+0  00000+0 0  9999
2 43564  57.1754 342.1162 0002780 310.8178  49.1700  1.70476097 48955
GSAT0222 (GALILEO 26)   
1 43565U 18060B   26157.13954150 -.00000066  00000+0  00000+0 0  9998
2 43565  57.1798 342.0825 0001851 255.3617 104.6309  1.70475822 49024
GSAT0219 (GALILEO 23)   
1 43566U 18060C   26155.01411019 -.00000072  00000+0  00000+0 0  9993
2 43566  57.1765 342.1411 0002350 331.7106  28.2884  1.70476084 48960
GSAT0220 (GALILEO 24)   
1 43567U 18060D   26156.99484105 -.00000066  00000+0  00000+0 0  9991
2 43567  57.1767 342.0886 0002290 320.0107  39.9854  1.70475975 48989
BEIDOU-3 M5             
1 43581U 18062A   26156.83105106  .00000081  00000+0  00000+0 0  9999
2 43581  54.0850 182.6899 0005528 289.5366  70.4586  1.86228807 53423
BEIDOU-3 M6             
1 43582U 18062B   26157.76838527  .00000090  00000+0  00000+0 0  9993
2 43582  54.0845 182.6476 0004848  10.2852 349.7791  1.86227707 53442
BEIDOU-3 M12            
1 43602U 18067A   26157.70678278  .00000091  00000+0  00000+0 0  9991
2 43602  54.1796 181.3957 0007789  30.4428 329.6550  1.86227955 52928
BEIDOU-3 M11            
1 43603U 18067B   26157.84181641  .00000093  00000+0  00000+0 0  9992
2 43603  54.1771 181.3547 0004478  14.0942 345.9708  1.86227393 52953
BEIDOU-3 M13            
1 43622U 18072A   26157.25976809 -.00000038  00000+0  00000+0 0  9992
2 43622  56.6156  63.0201 0007663 326.1226  33.8571  1.86231624 52450
BEIDOU-3 M14            
1 43623U 18072B   26157.12520362 -.00000038  00000+0  00000+0 0  9998
2 43623  56.6173  63.0188 0006272 355.0918   4.9306  1.86231671 52444
BEIDOU-3 M16            
1 43647U 18078A   26155.66985000 -.00000057  00000+0  00000+0 0  9992
2 43647  54.1020 300.4249 0007420  40.6792 319.3633  1.86232405 51927
BEIDOU-3 M15            
1 43648U 18078B   26152.57744501 -.00000074  00000+0  00000+0 0  9998
2 43648  54.1007 300.5335 0004536  56.3394 303.6792  1.86232507 51887
BEIDOU-3 G1             
1 43683U 18085A   26157.87818407 -.00000094  00000+0  00000+0 0  9992
2 43683   2.8417  97.6655 0008565 346.3604 287.3949  1.00271910 27952
COSMOS 2529 [GLONASS-M] 
1 43687U 18086A   26156.44971008  .00000070  00000+0  00000+0 0  9999
2 43687  64.2941 192.9908 0011692 256.2309 103.7093  2.13102149 59033
BEIDOU-3 M17            
1 43706U 18093A   26157.64194520  .00000089  00000+0  00000+0 0  9998
2 43706  54.1686 182.6542 0010014 291.3289 115.9953  1.86228514 51343
BEIDOU-3 M18            
1 43707U 18093B   26156.36067912  .00000077  00000+0  00000+0 0  9998
2 43707  54.1691 182.6896 0007758 321.2848  38.7154  1.86226697 51319
NAVSTAR 77 (USA 289)    
1 43873U 18109A   26157.79431804  .00000016  00000+0  00000+0 0  9996
2 43873  55.6755  92.5973 0038224 198.1697 341.4963  2.00561268 54868
BEIDOU-3 IGSO-1         
1 44204U 19023A   26157.95428288 -.00000215  00000+0  00000+0 0  9993
2 44204  58.6799  37.7569 0025418 225.7371  92.8010  1.00294902  7109
